[{"OBJECT_NAME":"STEP CUBE LAB-II","OBJECT_ID":"2022-065D","EPOCH":"2026-03-09T21:53:04.022304","MEAN_MOTION":14.63120511,"ECCENTRICITY":0.00081203,"INCLINATION":98.2053,"RA_OF_ASC_NODE":213.2152,"ARG_OF_PERICENTER":344.1456,"MEAN_ANOMALY":15.9491,"EPHEMERIS_TYPE":0,"CLASSIFICATION_TYPE":"U","NORAD_CAT_ID":52897,"ELEMENT_SET_NO":999,"REV_AT_EPOCH":19698,"BSTAR":0.00036922387,"MEAN_MOTION_DOT":1.85e-5,"MEAN_MOTION_DDOT":0},{"OBJECT_NAME":"SL-24 DEB","OBJECT_ID":"2011-044J","EPOCH":"2026-03-09T23:04:27.984000","MEAN_MOTION":14.64875915,"ECCENTRICITY":0.00141737,"INCLINATION":97.9452,"RA_OF_ASC_NODE":37.7575,"ARG_OF_PERICENTER":126.1758,"MEAN_ANOMALY":311.1678,"EPHEMERIS_TYPE":0,"CLASSIFICATION_TYPE":"U","NORAD_CAT_ID":37796,"ELEMENT_SET_NO":999,"REV_AT_EPOCH":77595,"BSTAR":0.00026559469,"MEAN_MOTION_DOT":1.375e-5,"MEAN_MOTION_DDOT":0}]
